STARLINK-4729           
1 53804U 22111AH  23345.19529066 -.00000623  00000+0 -21061-4 0  9998
2 53804  53.2179 337.7609 0001941  89.8453 270.2761 15.08840136 69361
STARLINK-4763           
1 53805U 22111AJ  23345.15945964 -.00000578  00000+0 -18230-4 0  9997
2 53805  53.2185 328.2637 0002103  86.9384 273.1848 15.08837705 69497
STARLINK-4768           
1 53806U 22111AK  23345.19894930 -.00000410  00000+0 -76547-5 0  9999
2 53806  53.2200 327.8056 0002258 103.7095 256.4148 15.08834933 69503
BLUEWALKER 3            
1 53807U 22111AL  23345.20307307  .00004140  00000+0  18665-3 0  9996
2 53807  53.2417 342.3906 0008999 231.4171 128.6022 15.23187605 69406
STARLINK-4749           
1 53818U 22114A   23344.47224132 -.00000227  00000+0  42581-5 0  9992
2 53818  53.2188  10.4936 0001585  88.9070 271.2107 15.16396731 69331
STARLINK-4738           
1 53819U 22114B   23345.13416125  .00003025  00000+0  20805-3 0  9993
2 53819  53.2173  23.4402 0001440  93.5334 266.5823 15.08844188 68564
STARLINK-4758           
1 53820U 22114C   23345.40184369  .00000189  00000+0  29963-4 0  9990
2 53820  53.2182  22.2738 0001415  96.0989 264.0164 15.08845367 68607
STARLINK-4752           
1 53821U 22114D   23344.35717529 -.00000276  00000+0  74098-6 0  9993
2 53821  53.2182 331.5478 0001375  85.9899 274.1250 15.08836501 69763
STARLINK-4748           
1 53823U 22114F   23345.17596183  .00000894  00000+0  74237-4 0  9995
2 53823  53.2187 338.0465 0001433  87.7753 272.3404 15.08841568 69201
STARLINK-4757           
1 53824U 22114G   23344.52967350  .00001837  00000+0  13348-3 0  9995
2 53824  53.2174  26.0661 0001558  95.0145 265.1025 15.08843002 68477
STARLINK-4751           
1 53825U 22114H   23345.39447526  .00000069  00000+0  22444-4 0  9994
2 53825  53.2187  22.2204 0001436  96.6001 263.5155 15.08839725 68604
STARLINK-4756           
1 53826U 22114J   23345.37605491  .00000070  00000+0  22521-4 0  9998
2 53826  53.2181  22.1086 0001518  75.8551 284.2610 15.08840704 68601
STARLINK-4764           
1 53827U 22114K   23345.38710527  .00000716  00000+0  63067-4 0  9994
2 53827  53.2189  22.1720 0001538  90.2171 269.8997 15.08844649 68605
STARLINK-4760           
1 53828U 22114L   23344.51125183 -.00000206  00000+0  51915-5 0  9992
2 53828  53.2194  25.9489 0001964  75.8051 284.3159 15.08837359 68471
STARLINK-4759           
1 53829U 22114M   23345.38341823 -.00002208  00000+0 -12068-3 0  9999
2 53829  53.2186  22.1512 0001479  91.6878 268.4284 15.08846944 68600
STARLINK-4761           
1 53830U 22114N   23344.50387969  .00000137  00000+0  26702-4 0  9993
2 53830  53.2188  25.9073 0001426  83.6086 276.5069 15.08840935 69012
STARLINK-4649           
1 53831U 22114P   23345.37973961  .00003020  00000+0  20779-3 0  9994
2 53831  53.2202  22.1171 0001980  60.8469 299.2722 15.08833656 68609
STARLINK-4747           
1 53832U 22114Q   23344.49651272  .00001306  00000+0  10014-3 0  9991
2 53832  53.2181  25.8627 0001471  95.7317 264.3843 15.08838221 69012
STARLINK-4771           
1 53833U 22114R   23344.50756730 -.00000038  00000+0  15708-4 0  9997
2 53833  53.2184  25.9260 0001515  87.6452 272.4714 15.08836584 68475
STARLINK-4737           
1 53834U 22114S   23345.41649828  .00001300  00000+0  99749-4 0  9997
2 53834  53.2182  21.6532 0001417  97.4516 262.6637 15.08846166 68618
STARLINK-4783           
1 53835U 22114T   23345.42755059 -.00000143  00000+0  91165-5 0  9993
2 53835  53.2186  21.7187 0001392  88.5226 271.5925 15.08849395 68617
STARLINK-4778           
1 53836U 22114U   23344.47172674  .00000722  00000+0  63437-4 0  9996
2 53836  53.2176  16.4278 0001371  94.8347 265.2802 15.08838833 69148
STARLINK-4776           
1 53837U 22114V   23344.49282640 -.00000306  00000+0 -11347-5 0  9998
2 53837  53.2177  25.8388 0001407 101.6128 258.5022 15.08840485 69011
STARLINK-4773           
1 53838U 22114W   23345.39540161  .00000377  00000+0  41805-4 0  9991
2 53838  53.2187  12.2424 0001432  90.9134 269.2022 15.08843066 68745
STARLINK-4784           
1 53839U 22114X   23344.47541305 -.00000405  00000+0 -73782-5 0  9995
2 53839  53.2181  16.4555 0001339  94.0230 266.0915 15.08836675 69148
STARLINK-4766           
1 53840U 22114Y   23344.52419246 -.00001030  00000+0 -46595-4 0  9997
2 53840  53.2179  16.0522 0002039 110.1552 249.9660 15.08843092 68611
STARLINK-4750           
1 53841U 22114Z   23345.39171740  .00001247  00000+0  96396-4 0  9990
2 53841  53.2184  12.2239 0001614  77.5950 282.5223 15.08842317 68748
STARLINK-4754           
1 53842U 22114AA  23345.37696317  .00006582  00000+0  43090-3 0  9990
2 53842  53.2181  12.1347 0001742 101.7900 258.3288 15.08868582 68746
STARLINK-4769           
1 53843U 22114AB  23345.38803242  .00001415  00000+0  10700-3 0  9991
2 53843  53.2180  12.1983 0001424  85.0971 275.0184 15.08841661 68741
STARLINK-4745           
1 53844U 22114AC  23345.36960439 -.00001067  00000+0 -48940-4 0  9995
2 53844  53.2188  12.0863 0001394 100.5441 259.5708 15.08843955 68744
STARLINK-4753           
1 53845U 22114AD  23345.31442509  .00001121  00000+0  88519-4 0  9999
2 53845  53.2190  12.4758 0001568 104.3400 255.7766 15.08839564 68737
STARLINK-4746           
1 53846U 22114AE  23345.36223585  .00000649  00000+0  58841-4 0  9995
2 53846  53.2186  12.0343 0001461  94.9406 265.1753 15.08841993 68742
STARLINK-4777           
1 53847U 22114AF  23344.51217722  .00006088  00000+0  40035-3 0  9996
2 53847  53.2190  15.9713 0001028  61.4311 298.6784 15.08832594 68612
STARLINK-4780           
1 53848U 22114AG  23345.48734359 -.00001809  00000+0 -95565-4 0  9991
2 53848  53.2189  11.3970 0001614  96.0673 264.0503 15.08846393 68766
STARLINK-4770           
1 53849U 22114AH  23345.36592227  .00000296  00000+0  36701-4 0  9999
2 53849  53.2192  12.0553 0001558 106.7434 253.3729 15.08839296 68740
STARLINK-4767           
1 53850U 22114AJ  23344.48269677  .00001201  00000+0  93556-4 0  9991
2 53850  53.2183  15.7924 0001488  82.9745 277.1417 15.08837355 69154
STARLINK-4755           
1 53851U 22114AK  23345.35855152 -.00000057  00000+0  14492-4 0  9999
2 53851  53.2188  12.0134 0001518  82.9854 277.1311 15.08841244 68747
STARLINK-4797           
1 53852U 22114AL  23345.30567248  .00000322  00000+0  38349-4 0  9992
2 53852  53.2182   7.4083 0001701 104.9486 255.1694 15.08838558 68804
STARLINK-4794           
1 53853U 22114AM  23344.49006731 -.00000520  00000+0 -14591-4 0  9992
2 53853  53.2183  15.8355 0001505  72.6406 287.4751 15.08838903 69151
STARLINK-4800           
1 53854U 22114AN  23345.33376859  .00001255  00000+0  96949-4 0  9999
2 53854  53.2183   2.5907 0001957 110.4123 249.7079 15.08841675 68878
STARLINK-4703           
1 53855U 22114AP  23345.35582778  .00000899  00000+0  74551-4 0  9999
2 53855  53.2164  12.0054 0001454  86.4706 273.6452 15.08852858 68740
STARLINK-4795           
1 53856U 22114AQ  23344.45791225  .00000856  00000+0  71888-4 0  9992
2 53856  53.2174   6.3652 0001804  92.2020 267.9178 15.08838854 69286
STARLINK-4809           
1 53857U 22114AR  23345.40636772  .00000660  00000+0  59517-4 0  9992
2 53857  53.2183  11.6045 0001404  77.7901 282.3248 15.08845118 68755
STARLINK-4798           
1 53858U 22114AS  23344.46896440  .00000431  00000+0  45156-4 0  9998
2 53858  53.2187   6.4329 0001633  75.6629 284.4544 15.08841683 69289
STARLINK-4790           
1 53859U 22114AT  23344.48499835 -.00000369  00000+0 -51097-5 0  9992
2 53859  53.2193  10.8127 0001677  87.1048 273.0136 15.08843452 69224
STARLINK-4799           
1 53860U 22114AU  23345.32271214 -.00000013  00000+0  17307-4 0  9997
2 53860  53.2175   2.5223 0001588  70.7515 289.3649 15.08847675 68879
STARLINK-4781           
1 53861U 22114AV  23345.19391960  .00000399  00000+0  43137-4 0  9990
2 53861  53.2186   3.1330 0001465  87.4591 272.6568 15.08841981 68858
STARLINK-4792           
1 53862U 22114AW  23345.36684849  .00000122  00000+0  25776-4 0  9994
2 53862  53.2176   2.0892 0001442  85.4288 274.6869 15.08844038 68880
STARLINK-4788           
1 53863U 22114AX  23345.31534726  .00007498  00000+0  48856-3 0  9994
2 53863  53.2164   2.4731 0001294  97.1690 262.9450 15.08850950 68871
STARLINK-4779           
1 53864U 22114AY  23344.47625019 -.00000571  00000+0 -17772-4 0  9998
2 53864  53.2180   5.7667 0001598  84.9530 275.1645 15.08840546 69297
STARLINK-4785           
1 53865U 22114AZ  23345.29323563 -.00000390  00000+0 -63804-5 0  9996
2 53865  53.2181   2.3319 0001679 124.7569 235.3581 15.08846754 68878
STARLINK-4762           
1 53866U 22114BA  23344.40088915  .00000194  00000+0  30306-4 0  9998
2 53866  53.2188 346.7480 0001636  93.9121 266.2059 15.08839272 69550
STARLINK-4793           
1 53867U 22114BB  23344.45515419  .00000099  00000+0  24328-4 0  9999
2 53867  53.2184 356.3614 0001678  84.0432 276.0751 15.08836273 69427
STARLINK-4789           
1 53868U 22114BC  23345.16629079  .00000953  00000+0  77990-4 0  9999
2 53868  53.2188 343.0167 0001989 108.3966 251.7243 15.08839585 69138
STARLINK-4810           
1 53869U 22114BD  23345.34566262  .00001057  00000+0  84477-4 0  9998
2 53869  53.2177 351.9691 0001415  92.4975 267.6179 15.08841299 69021
STARLINK-4732           
1 53870U 22114BE  23345.16997357  .00000895  00000+0  74317-4 0  9994
2 53870  53.2192 343.0190 0002006 106.4031 253.7182 15.08839225 69130
STARLINK-4740           
1 53871U 22114BF  23345.20673151 -.00000237  00000+0  32166-5 0  9991
2 53871  53.2190 342.5423 0001891 108.6427 251.4771 15.08843948 69143
STARLINK-5028           
1 53886U 22119A   23345.44785492  .00002665  00000+0  18545-3 0  9999
2 53886  53.2184  42.0762 0001704  72.3386 287.7792 15.08848201 67582
STARLINK-5029           
1 53887U 22119B   23344.70808290  .00003640  00000+0  24719-3 0  9994
2 53887  53.2182  45.2762 0001371  88.3995 271.7154 15.08756719 67890
